{
  "type": "FeatureCollection",
  "features": [
    {
      "type": "Feature",
      "properties": {
        "norad_id": 30250,
        "name": "FENGYUN 1C DEB",
        "group": "fengyun-1c-debris",
        "lat": 80.93639207994777,
        "lon": -115.10606395926786,
        "alt_km": 887.2610848774166,
        "timestamp": "2025-12-24T09:46:31.279047+00:00",
        "meta_object_name": "FENGYUN 1C DEB",
        "meta_object_id": "1999-025XK",
        "meta_epoch": "2025-12-23T21:41:31.166880",
        "meta_mean_motion": 14.0163642,
        "meta_eccentricity": 0.0068434,
        "meta_inclination": 98.7547,
        "meta_ra_of_asc_node": 349.3996,
        "meta_arg_of_pericenter": 191.7251,
        "meta_mean_anomaly": 242.3149,
        "meta_ephemeris_type": 0,
        "meta_classification_type": "U",
        "meta_norad_cat_id": 30250,
        "meta_element_set_no": 999,
        "meta_rev_at_epoch": 96648,
        "meta_bstar": 0.00024356,
        "meta_mean_motion_dot": 3.35e-06,
        "meta_mean_motion_ddot": 0,
        "tle_line1": "1 30250U 99025XK  25357.90383295  .00000335  00000+0  24356-3 0  9999",
        "tle_line2": "2 30250  98.7547 349.3996 0068434 191.7251 242.3149 14.01636420966481"
      },
      "geometry": {
        "type": "Point",
        "coordinates": [
          -115.10606395926786,
          80.93639207994777
        ]
      }
    },
    {
      "type": "Feature",
      "properties": {
        "norad_id": 30251,
        "name": "FENGYUN 1C DEB",
        "group": "fengyun-1c-debris",
        "lat": -58.32335576429755,
        "lon": 2.207253253079444,
        "alt_km": 780.7325365645411,
        "timestamp": "2025-12-24T09:46:31.279057+00:00",
        "meta_object_name": "FENGYUN 1C DEB",
        "meta_object_id": "1999-025XL",
        "meta_epoch": "2025-12-24T02:30:17.141184",
        "meta_mean_motion": 14.29330501,
        "meta_eccentricity": 0.0051412,
        "meta_inclination": 99.0487,
        "meta_ra_of_asc_node": 196.8596,
        "meta_arg_of_pericenter": 297.176,
        "meta_mean_anomaly": 184.8306,
        "meta_ephemeris_type": 0,
        "meta_classification_type": "U",
        "meta_norad_cat_id": 30251,
        "meta_element_set_no": 999,
        "meta_rev_at_epoch": 98304,
        "meta_bstar": 0.00045127,
        "meta_mean_motion_dot": 1.117e-05,
        "meta_mean_motion_ddot": 0,
        "tle_line1": "1 30251U 99025XL  25358.10436506  .00001117  00000+0  45127-3 0  9995",
        "tle_line2": "2 30251  99.0487 196.8596 0051412 297.1760 184.8306 14.29330501983041"
      },
      "geometry": {
        "type": "Point",
        "coordinates": [
          2.207253253079444,
          -58.32335576429755
        ]
      }
    },
    {
      "type": "Feature",
      "properties": {
        "norad_id": 30252,
        "name": "FENGYUN 1C DEB",
        "group": "fengyun-1c-debris",
        "lat": 2.7615784192177113,
        "lon": 12.685752877884285,
        "alt_km": 906.1150658671277,
        "timestamp": "2025-12-24T09:46:31.279067+00:00",
        "meta_object_name": "FENGYUN 1C DEB",
        "meta_object_id": "1999-025XM",
        "meta_epoch": "2025-12-23T23:51:19.691424",
        "meta_mean_motion": 14.09727856,
        "meta_eccentricity": 0.0066311,
        "meta_inclination": 98.7428,
        "meta_ra_of_asc_node": 12.7096,
        "meta_arg_of_pericenter": 209.5501,
        "meta_mean_anomaly": 216.5499,
        "meta_ephemeris_type": 0,
        "meta_classification_type": "U",
        "meta_norad_cat_id": 30252,
        "meta_element_set_no": 999,
        "meta_rev_at_epoch": 97124,
        "meta_bstar": 0.00045449,
        "meta_mean_motion_dot": 7.71e-06,
        "meta_mean_motion_ddot": 0,
        "tle_line1": "1 30252U 99025XM  25357.99397791  .00000771  00000+0  45449-3 0  9996",
        "tle_line2": "2 30252  98.7428  12.7096 0066311 209.5501 216.5499 14.09727856971244"
      },
      "geometry": {
        "type": "Point",
        "coordinates": [
          12.685752877884285,
          2.7615784192177113
        ]
      }
    },
    {
      "type": "Feature",
      "properties": {
        "norad_id": 30253,
        "name": "FENGYUN 1C DEB",
        "group": "fengyun-1c-debris",
        "lat": 64.37940521682826,
        "lon": 66.74842958294467,
        "alt_km": 888.0614774635851,
        "timestamp": "2025-12-24T09:46:31.279078+00:00",
        "meta_object_name": "FENGYUN 1C DEB",
        "meta_object_id": "1999-025XN",
        "meta_epoch": "2025-12-23T05:44:54.699072",
        "meta_mean_motion": 13.7322202,
        "meta_eccentricity": 0.02209148,
        "meta_inclination": 98.7512,
        "meta_ra_of_asc_node": 84.4144,
        "meta_arg_of_pericenter": 13.0534,
        "meta_mean_anomaly": 40.7804,
        "meta_ephemeris_type": 0,
        "meta_classification_type": "U",
        "meta_norad_cat_id": 30253,
        "meta_element_set_no": 999,
        "meta_rev_at_epoch": 94158,
        "meta_bstar": 0.0019201119,
        "meta_mean_motion_dot": 2.082e-05,
        "meta_mean_motion_ddot": 0,
        "tle_line1": "1 30253U 99025XN  25357.23952198  .00002082  00000+0  19201-2 0  9995",
        "tle_line2": "2 30253  98.7512  84.4144 0220914  13.0534  40.7804 13.73222020941588"
      },
      "geometry": {
        "type": "Point",
        "coordinates": [
          66.74842958294467,
          64.37940521682826
        ]
      }
    },
    {
      "type": "Feature",
      "properties": {
        "norad_id": 30257,
        "name": "FENGYUN 1C DEB",
        "group": "fengyun-1c-debris",
        "lat": 1.7938313797289114,
        "lon": -3.6310109322350126,
        "alt_km": 844.4289698534676,
        "timestamp": "2025-12-24T09:46:31.279088+00:00",
        "meta_object_name": "FENGYUN 1C DEB",
        "meta_object_id": "1999-025XS",
        "meta_epoch": "2025-12-23T23:38:27.524256",
        "meta_mean_motion": 14.09729761,
        "meta_eccentricity": 0.0059623,
        "meta_inclination": 98.7497,
        "meta_ra_of_asc_node": 356.2349,
        "meta_arg_of_pericenter": 68.0147,
        "meta_mean_anomaly": 312.7192,
        "meta_ephemeris_type": 0,
        "meta_classification_type": "U",
        "meta_norad_cat_id": 30257,
        "meta_element_set_no": 999,
        "meta_rev_at_epoch": 97376,
        "meta_bstar": 0.00012712,
        "meta_mean_motion_dot": 1.84e-06,
        "meta_mean_motion_ddot": 0,
        "tle_line1": "1 30257U 99025XS  25357.98504079  .00000184  00000+0  12712-3 0  9994",
        "tle_line2": "2 30257  98.7497 356.2349 0059623  68.0147 312.7192 14.09729761973769"
      },
      "geometry": {
        "type": "Point",
        "coordinates": [
          -3.6310109322350126,
          1.7938313797289114
        ]
      }
    },
    {
      "type": "Feature",
      "properties": {
        "norad_id": 30259,
        "name": "FENGYUN 1C DEB",
        "group": "fengyun-1c-debris",
        "lat": 4.260067108622322,
        "lon": -150.02406279160724,
        "alt_km": 834.7519942088275,
        "timestamp": "2025-12-24T09:46:31.279098+00:00",
        "meta_object_name": "FENGYUN 1C DEB",
        "meta_object_id": "1999-025XU",
        "meta_epoch": "2025-12-24T03:44:39.988032",
        "meta_mean_motion": 14.51560362,
        "meta_eccentricity": 0.0242037,
        "meta_inclination": 98.7607,
        "meta_ra_of_asc_node": 210.372,
        "meta_arg_of_pericenter": 233.5514,
        "meta_mean_anomaly": 256.4039,
        "meta_ephemeris_type": 0,
        "meta_classification_type": "U",
        "meta_norad_cat_id": 30259,
        "meta_element_set_no": 999,
        "meta_rev_at_epoch": 99640,
        "meta_bstar": 0.00045499,
        "meta_mean_motion_dot": 2.604e-05,
        "meta_mean_motion_ddot": 0,
        "tle_line1": "1 30259U 99025XU  25358.15601838  .00002604  00000+0  45499-3 0  9994",
        "tle_line2": "2 30259  98.7607 210.3720 0242037 233.5514 256.4039 14.51560362996404"
      },
      "geometry": {
        "type": "Point",
        "coordinates": [
          -150.02406279160724,
          4.260067108622322
        ]
      }
    },
    {
      "type": "Feature",
      "properties": {
        "norad_id": 30263,
        "name": "FENGYUN 1C DEB",
        "group": "fengyun-1c-debris",
        "lat": -7.120871168846497,
        "lon": -67.77849591729714,
        "alt_km": 973.1612557240633,
        "timestamp": "2025-12-24T09:46:31.279108+00:00",
        "meta_object_name": "FENGYUN 1C DEB",
        "meta_object_id": "1999-025XY",
        "meta_epoch": "2025-12-20T07:28:46.628256",
        "meta_mean_motion": 14.01494898,
        "meta_eccentricity": 0.01444826,
        "meta_inclination": 98.9351,
        "meta_ra_of_asc_node": 109.3367,
        "meta_arg_of_pericenter": 339.2977,
        "meta_mean_anomaly": 76.0019,
        "meta_ephemeris_type": 0,
        "meta_classification_type": "U",
        "meta_norad_cat_id": 30263,
        "meta_element_set_no": 999,
        "meta_rev_at_epoch": 96131,
        "meta_bstar": 0.00070985244,
        "meta_mean_motion_dot": 1.131e-05,
        "meta_mean_motion_ddot": 0,
        "tle_line1": "1 30263U 99025XY  25354.31165079  .00001131  00000+0  70985-3 0  9997",
        "tle_line2": "2 30263  98.9351 109.3367 0144482 339.2977  76.0019 14.01494898961314"
      },
      "geometry": {
        "type": "Point",
        "coordinates": [
          -67.77849591729714,
          -7.120871168846497
        ]
      }
    }
  ]
}